{"fetched_at":"2026-07-10T18:07:55.353Z","source":"https://celestrak.org/NORAD/elements/gp.php?GROUP=spire&FORMAT=JSON","constellation":"spire","records":[{"OBJECT_NAME":"LEMUR-1","OBJECT_ID":"2014-033AL","EPOCH":"2026-07-09T09:22:35.558976","CLASSIFICATION_TYPE":"U","MEAN_MOTION":14.85326036,"ECCENTRICITY":0.00482834,"INCLINATION":97.7901,"RA_OF_ASC_NODE":339.7062,"ARG_OF_PERICENTER":7.0442,"MEAN_ANOMALY":353.1441,"EPHEMERIS_TYPE":0,"NORAD_CAT_ID":40044,"ELEMENT_SET_NO":999,"REV_AT_EPOCH":64876,"BSTAR":0.00014974479,"MEAN_MOTION_DOT":0.00001258,"MEAN_MOTION_DDOT":0},{"OBJECT_NAME":"LEMUR-2-GREENBERG","OBJECT_ID":"2017-042N","EPOCH":"2026-07-09T11:53:19.376160","CLASSIFICATION_TYPE":"U","MEAN_MOTION":15.32031511,"ECCENTRICITY":0.00071356,"INCLINATION":97.3831,"RA_OF_ASC_NODE":11.0293,"ARG_OF_PERICENTER":283.6729,"MEAN_ANOMALY":76.3718,"EPHEMERIS_TYPE":0,"NORAD_CAT_ID":42837,"ELEMENT_SET_NO":999,"REV_AT_EPOCH":49180,"BSTAR":0.0003749711,"MEAN_MOTION_DOT":0.00011532,"MEAN_MOTION_DDOT":0},{"OBJECT_NAME":"LEMUR-2-ANDIS","OBJECT_ID":"2017-042P","EPOCH":"2026-07-09T17:35:06.455040","CLASSIFICATION_TYPE":"U","MEAN_MOTION":15.35772741,"ECCENTRICITY":0.00070991,"INCLINATION":97.3683,"RA_OF_ASC_NODE":11.5304,"ARG_OF_PERICENTER":281.4571,"MEAN_ANOMALY":78.5875,"EPHEMERIS_TYPE":0,"NORAD_CAT_ID":42838,"ELEMENT_SET_NO":999,"REV_AT_EPOCH":49191,"BSTAR":0.00045347156,"MEAN_MOTION_DOT":0.00015725,"MEAN_MOTION_DDOT":0},{"OBJECT_NAME":"LEMUR-2-MONSON","OBJECT_ID":"2017-042Q","EPOCH":"2026-07-09T17:58:54.053472","CLASSIFICATION_TYPE":"U","MEAN_MOTION":15.28660176,"ECCENTRICITY":0.00051259,"INCLINATION":97.4092,"RA_OF_ASC_NODE":11.2195,"ARG_OF_PERICENTER":270.2225,"MEAN_ANOMALY":89.8427,"EPHEMERIS_TYPE":0,"NORAD_CAT_ID":42839,"ELEMENT_SET_NO":999,"REV_AT_EPOCH":49161,"BSTAR":0.00034885818,"MEAN_MOTION_DOT":0.00009654,"MEAN_MOTION_DDOT":0},{"OBJECT_NAME":"LEMUR-2-FURIAUS","OBJECT_ID":"2017-042R","EPOCH":"2026-07-09T18:22:55.841376","CLASSIFICATION_TYPE":"U","MEAN_MOTION":15.3101131,"ECCENTRICITY":0.00064125,"INCLINATION":97.378,"RA_OF_ASC_NODE":9.2029,"ARG_OF_PERICENTER":351.0661,"MEAN_ANOMALY":9.0465,"EPHEMERIS_TYPE":0,"NORAD_CAT_ID":42840,"ELEMENT_SET_NO":999,"REV_AT_EPOCH":49166,"BSTAR":0.0004301312,"MEAN_MOTION_DOT":0.00012826,"MEAN_MOTION_DDOT":0},{"OBJECT_NAME":"LEMUR-2-PETERG","OBJECT_ID":"2017-042S","EPOCH":"2026-07-09T11:16:18.280128","CLASSIFICATION_TYPE":"U","MEAN_MOTION":15.34883639,"ECCENTRICITY":0.00029493,"INCLINATION":97.3999,"RA_OF_ASC_NODE":15.5513,"ARG_OF_PERICENTER":247.6478,"MEAN_ANOMALY":112.4453,"EPHEMERIS_TYPE":0,"NORAD_CAT_ID":42841,"ELEMENT_SET_NO":999,"REV_AT_EPOCH":49185,"BSTAR":0.00050201144,"MEAN_MOTION_DOT":0.00016921,"MEAN_MOTION_DDOT":0},{"OBJECT_NAME":"LEMUR-2-DEMBITZ","OBJECT_ID":"2017-042T","EPOCH":"2026-07-09T11:00:40.592160","CLASSIFICATION_TYPE":"U","MEAN_MOTION":15.30988716,"ECCENTRICITY":0.00051121,"INCLINATION":97.3833,"RA_OF_ASC_NODE":11.9375,"ARG_OF_PERICENTER":300.3948,"MEAN_ANOMALY":59.6787,"EPHEMERIS_TYPE":0,"NORAD_CAT_ID":42842,"ELEMENT_SET_NO":999,"REV_AT_EPOCH":49175,"BSTAR":0.00043497479,"MEAN_MOTION_DOT":0.00012959,"MEAN_MOTION_DDOT":0},{"OBJECT_NAME":"LEMUR-2-ZACHARY","OBJECT_ID":"2017-042W","EPOCH":"2026-07-09T19:57:23.286528","CLASSIFICATION_TYPE":"U","MEAN_MOTION":15.52354875,"ECCENTRICITY":0.00023798,"INCLINATION":97.3589,"RA_OF_ASC_NODE":22.9819,"ARG_OF_PERICENTER":275.3054,"MEAN_ANOMALY":84.7927,"EPHEMERIS_TYPE":0,"NORAD_CAT_ID":42845,"ELEMENT_SET_NO":999,"REV_AT_EPOCH":49271,"BSTAR":0.00066596221,"MEAN_MOTION_DOT":0.00040627,"MEAN_MOTION_DDOT":0},{"OBJECT_NAME":"LEMUR-2-AMANDA-SVANTE","OBJECT_ID":"2021-034B","EPOCH":"2026-07-10T04:09:47.168640","CLASSIFICATION_TYPE":"U","MEAN_MOTION":15.35747851,"ECCENTRICITY":0.00042649,"INCLINATION":97.5753,"RA_OF_ASC_NODE":270.0872,"ARG_OF_PERICENTER":154.7454,"MEAN_ANOMALY":205.3998,"EPHEMERIS_TYPE":0,"NORAD_CAT_ID":48269,"ELEMENT_SET_NO":999,"REV_AT_EPOCH":28458,"BSTAR":0.00075899204,"MEAN_MOTION_DOT":0.00026374,"MEAN_MOTION_DDOT":0},{"OBJECT_NAME":"LEMUR-2-SPECIAL-K","OBJECT_ID":"2021-034F","EPOCH":"2026-07-09T11:36:21.286080","CLASSIFICATION_TYPE":"U","MEAN_MOTION":15.72652165,"ECCENTRICITY":0.00060947,"INCLINATION":97.5638,"RA_OF_ASC_NODE":279.081,"ARG_OF_PERICENTER":220.1944,"MEAN_ANOMALY":139.8869,"EPHEMERIS_TYPE":0,"NORAD_CAT_ID":48273,"ELEMENT_SET_NO":999,"REV_AT_EPOCH":28518,"BSTAR":0.001370293,"MEAN_MOTION_DOT":0.00187516,"MEAN_MOTION_DDOT":0},{"OBJECT_NAME":"LEMUR-2-EMBRIONOVIS","OBJECT_ID":"2023-084AQ","EPOCH":"2026-07-09T09:21:51.470784","CLASSIFICATION_TYPE":"U","MEAN_MOTION":15.38126462,"ECCENTRICITY":0.00078512,"INCLINATION":97.6309,"RA_OF_ASC_NODE":335.4539,"ARG_OF_PERICENTER":228.8469,"MEAN_ANOMALY":131.2098,"EPHEMERIS_TYPE":0,"NORAD_CAT_ID":56970,"ELEMENT_SET_NO":999,"REV_AT_EPOCH":17109,"BSTAR":0.00028165102,"MEAN_MOTION_DOT":0.00010497,"MEAN_MOTION_DDOT":0},{"OBJECT_NAME":"LEMUR-2-DEVERILL-M-T","OBJECT_ID":"2023-100F","EPOCH":"2026-07-07T16:45:47.686176","CLASSIFICATION_TYPE":"U","MEAN_MOTION":15.40821036,"ECCENTRICITY":0.00047974,"INCLINATION":99.446,"RA_OF_ASC_NODE":233.3957,"ARG_OF_PERICENTER":329.3522,"MEAN_ANOMALY":30.7437,"EPHEMERIS_TYPE":0,"NORAD_CAT_ID":57391,"ELEMENT_SET_NO":999,"REV_AT_EPOCH":16440,"BSTAR":0.0003956978,"MEAN_MOTION_DOT":0.00016121,"MEAN_MOTION_DDOT":0},{"OBJECT_NAME":"LEMUR-2-BASS","OBJECT_ID":"2023-174D","EPOCH":"2026-07-10T06:57:42.472224","CLASSIFICATION_TYPE":"U","MEAN_MOTION":15.43883235,"ECCENTRICITY":0.00078927,"INCLINATION":97.3844,"RA_OF_ASC_NODE":276.3364,"ARG_OF_PERICENTER":92.772,"MEAN_ANOMALY":267.4432,"EPHEMERIS_TYPE":0,"NORAD_CAT_ID":58259,"ELEMENT_SET_NO":999,"REV_AT_EPOCH":14892,"BSTAR":0.00029573519,"MEAN_MOTION_DOT":0.00013358,"MEAN_MOTION_DDOT":0},{"OBJECT_NAME":"LEMUR-2-JK0903EM1407","OBJECT_ID":"2023-174CJ","EPOCH":"2026-07-10T05:19:31.787616","CLASSIFICATION_TYPE":"U","MEAN_MOTION":15.52887831,"ECCENTRICITY":0.00040967,"INCLINATION":97.3919,"RA_OF_ASC_NODE":282.3605,"ARG_OF_PERICENTER":49.262,"MEAN_ANOMALY":310.8988,"EPHEMERIS_TYPE":0,"NORAD_CAT_ID":58336,"ELEMENT_SET_NO":999,"REV_AT_EPOCH":14930,"BSTAR":0.00036115045,"MEAN_MOTION_DOT":0.00022366,"MEAN_MOTION_DDOT":0},{"OBJECT_NAME":"LEMUR-2-MJR092620","OBJECT_ID":"2023-174CN","EPOCH":"2026-07-09T01:06:29.265120","CLASSIFICATION_TYPE":"U","MEAN_MOTION":15.45702331,"ECCENTRICITY":0.00058914,"INCLINATION":97.3971,"RA_OF_ASC_NODE":280.4893,"ARG_OF_PERICENTER":50.7251,"MEAN_ANOMALY":309.4519,"EPHEMERIS_TYPE":0,"NORAD_CAT_ID":58340,"ELEMENT_SET_NO":999,"REV_AT_EPOCH":14902,"BSTAR":0.0002952654,"MEAN_MOTION_DOT":0.00014182,"MEAN_MOTION_DDOT":0},{"OBJECT_NAME":"LEMUR-2-NIMBUS2000","OBJECT_ID":"2024-022A","EPOCH":"2026-07-09T11:44:46.434048","CLASSIFICATION_TYPE":"U","MEAN_MOTION":15.40947835,"ECCENTRICITY":0.00093383,"INCLINATION":97.4097,"RA_OF_ASC_NODE":40.7823,"ARG_OF_PERICENTER":47.1947,"MEAN_ANOMALY":313.0083,"EPHEMERIS_TYPE":0,"NORAD_CAT_ID":58899,"ELEMENT_SET_NO":999,"REV_AT_EPOCH":13570,"BSTAR":0.00040228254,"MEAN_MOTION_DOT":0.00016512,"MEAN_MOTION_DDOT":0}]}
